[{"OBJECT_NAME":"SL-16 R/B","OBJECT_ID":"1993-059B","EPOCH":"2026-04-20T04:34:02.858304","MEAN_MOTION":14.17238586,"ECCENTRICITY":0.00160878,"INCLINATION":70.989,"RA_OF_ASC_NODE":283.609,"ARG_OF_PERICENTER":153.8599,"MEAN_ANOMALY":206.3341,"EPHEMERIS_TYPE":0,"CLASSIFICATION_TYPE":"U","NORAD_CAT_ID":22803,"ELEMENT_SET_NO":999,"REV_AT_EPOCH":68541,"BSTAR":-7.2386725e-5,"MEAN_MOTION_DOT":-1.94e-6,"MEAN_MOTION_DDOT":0},{"OBJECT_NAME":"ARIANE 40 R/B","OBJECT_ID":"1993-061H","EPOCH":"2026-04-20T10:57:58.574880","MEAN_MOTION":14.3288199,"ECCENTRICITY":0.00113484,"INCLINATION":98.4851,"RA_OF_ASC_NODE":178.5051,"ARG_OF_PERICENTER":155.1264,"MEAN_ANOMALY":205.047,"EPHEMERIS_TYPE":0,"CLASSIFICATION_TYPE":"U","NORAD_CAT_ID":22830,"ELEMENT_SET_NO":999,"REV_AT_EPOCH":70008,"BSTAR":6.0161008e-5,"MEAN_MOTION_DOT":1.21e-6,"MEAN_MOTION_DDOT":0},{"OBJECT_NAME":"COSMOS 2278","OBJECT_ID":"1994-023A","EPOCH":"2026-04-20T09:29:21.535296","MEAN_MOTION":14.14383839,"ECCENTRICITY":0.00101303,"INCLINATION":71.0521,"RA_OF_ASC_NODE":87.839,"ARG_OF_PERICENTER":314.7984,"MEAN_ANOMALY":45.2314,"EPHEMERIS_TYPE":0,"CLASSIFICATION_TYPE":"U","NORAD_CAT_ID":23087,"ELEMENT_SET_NO":999,"REV_AT_EPOCH":65070,"BSTAR":0.00018930897,"MEAN_MOTION_DOT":3.15e-6,"MEAN_MOTION_DDOT":0},{"OBJECT_NAME":"SL-16 R/B","OBJECT_ID":"1994-023B","EPOCH":"2026-04-20T08:27:20.527488","MEAN_MOTION":14.15016628,"ECCENTRICITY":0.00054091,"INCLINATION":71.0009,"RA_OF_ASC_NODE":343.3937,"ARG_OF_PERICENTER":248.6992,"MEAN_ANOMALY":111.3554,"EPHEMERIS_TYPE":0,"CLASSIFICATION_TYPE":"U","NORAD_CAT_ID":23088,"ELEMENT_SET_NO":999,"REV_AT_EPOCH":65198,"BSTAR":-0.00010191236,"MEAN_MOTION_DOT":-2.45e-6,"MEAN_MOTION_DDOT":0},{"OBJECT_NAME":"SL-16 R/B","OBJECT_ID":"1994-074B","EPOCH":"2026-04-20T07:28:58.136736","MEAN_MOTION":14.79451692,"ECCENTRICITY":0.0008112,"INCLINATION":97.7048,"RA_OF_ASC_NODE":139.4319,"ARG_OF_PERICENTER":87.1735,"MEAN_ANOMALY":283.6911,"EPHEMERIS_TYPE":0,"CLASSIFICATION_TYPE":"U","NORAD_CAT_ID":23343,"ELEMENT_SET_NO":999,"REV_AT_EPOCH":69340,"BSTAR":4.0944e-5,"MEAN_MOTION_DOT":2.57e-6,"MEAN_MOTION_DDOT":0},{"OBJECT_NAME":"SL-16 R/B","OBJECT_ID":"1994-077B","EPOCH":"2026-04-20T14:24:31.645728","MEAN_MOTION":14.15569943,"ECCENTRICITY":7.501e-5,"INCLINATION":70.9818,"RA_OF_ASC_NODE":264.3135,"ARG_OF_PERICENTER":143.6731,"MEAN_ANOMALY":216.4443,"EPHEMERIS_TYPE":0,"CLASSIFICATION_TYPE":"U","NORAD_CAT_ID":23405,"ELEMENT_SET_NO":999,"REV_AT_EPOCH":62216,"BSTAR":0.00015085811,"MEAN_MOTION_DOT":2.47e-6,"MEAN_MOTION_DDOT":0},{"OBJECT_NAME":"ARIANE 40+ R/B","OBJECT_ID":"1995-021B","EPOCH":"2026-04-20T10:25:38.248608","MEAN_MOTION":14.39800387,"ECCENTRICITY":0.00070719,"INCLINATION":98.4437,"RA_OF_ASC_NODE":181.3373,"ARG_OF_PERICENTER":27.4902,"MEAN_ANOMALY":342.9985,"EPHEMERIS_TYPE":0,"CLASSIFICATION_TYPE":"U","NORAD_CAT_ID":23561,"ELEMENT_SET_NO":999,"REV_AT_EPOCH":62525,"BSTAR":6.6454021e-5,"MEAN_MOTION_DOT":1.65e-6,"MEAN_MOTION_DDOT":0},{"OBJECT_NAME":"SL-16 R/B","OBJECT_ID":"1995-058B","EPOCH":"2026-04-20T09:32:14.064864","MEAN_MOTION":14.15505054,"ECCENTRICITY":0.00107593,"INCLINATION":71.02,"RA_OF_ASC_NODE":92.6891,"ARG_OF_PERICENTER":48.8071,"MEAN_ANOMALY":311.3978,"EPHEMERIS_TYPE":0,"CLASSIFICATION_TYPE":"U","NORAD_CAT_ID":23705,"ELEMENT_SET_NO":999,"REV_AT_EPOCH":57375,"BSTAR":4.181447e-5,"MEAN_MOTION_DOT":3.4e-7,"MEAN_MOTION_DDOT":0},{"OBJECT_NAME":"SL-16 R/B","OBJECT_ID":"1996-051B","EPOCH":"2026-04-20T09:12:37.766880","MEAN_MOTION":14.12426274,"ECCENTRICITY":0.00125343,"INCLINATION":70.7589,"RA_OF_ASC_NODE":86.987,"ARG_OF_PERICENTER":76.4761,"MEAN_ANOMALY":283.7754,"EPHEMERIS_TYPE":0,"CLASSIFICATION_TYPE":"U","NORAD_CAT_ID":24298,"ELEMENT_SET_NO":999,"REV_AT_EPOCH":52753,"BSTAR":4.6594228e-5,"MEAN_MOTION_DOT":3.7e-7,"MEAN_MOTION_DDOT":0},{"OBJECT_NAME":"ORBVIEW 2 (SEASTAR)","OBJECT_ID":"1997-037A","EPOCH":"2026-04-20T09:04:26.918112","MEAN_MOTION":14.35522177,"ECCENTRICITY":0.00012585,"INCLINATION":98.8635,"RA_OF_ASC_NODE":275.8099,"ARG_OF_PERICENTER":316.5835,"MEAN_ANOMALY":43.525,"EPHEMERIS_TYPE":0,"CLASSIFICATION_TYPE":"U","NORAD_CAT_ID":24883,"ELEMENT_SET_NO":999,"REV_AT_EPOCH":51445,"BSTAR":6.812925e-5,"MEAN_MOTION_DOT":1.49e-6,"MEAN_MOTION_DDOT":0},{"OBJECT_NAME":"SL-16 R/B","OBJECT_ID":"1998-043G","EPOCH":"2026-04-20T09:48:13.395168","MEAN_MOTION":14.26058794,"ECCENTRICITY":0.00087784,"INCLINATION":98.8321,"RA_OF_ASC_NODE":64.086,"ARG_OF_PERICENTER":251.9166,"MEAN_ANOMALY":108.1057,"EPHEMERIS_TYPE":0,"CLASSIFICATION_TYPE":"U","NORAD_CAT_ID":25400,"ELEMENT_SET_NO":999,"REV_AT_EPOCH":44493,"BSTAR":2.9116294e-5,"MEAN_MOTION_DOT":2.4e-7,"MEAN_MOTION_DDOT":0},{"OBJECT_NAME":"SL-16 R/B","OBJECT_ID":"1998-045B","EPOCH":"2026-04-20T09:18:27.307584","MEAN_MOTION":14.16198667,"ECCENTRICITY":0.00091762,"INCLINATION":71.0094,"RA_OF_ASC_NODE":93.8825,"ARG_OF_PERICENTER":309.8393,"MEAN_ANOMALY":50.1922,"EPHEMERIS_TYPE":0,"CLASSIFICATION_TYPE":"U","NORAD_CAT_ID":25407,"ELEMENT_SET_NO":999,"REV_AT_EPOCH":43300,"BSTAR":-7.5959673e-5,"MEAN_MOTION_DOT":-1.98e-6,"MEAN_MOTION_DDOT":0},{"OBJECT_NAME":"ISS (ZARYA)","OBJECT_ID":"1998-067A","EPOCH":"2026-04-20T12:32:07.793952","MEAN_MOTION":15.48851306,"ECCENTRICITY":0.00066857,"INCLINATION":51.6326,"RA_OF_ASC_NODE":225.5007,"ARG_OF_PERICENTER":329.7855,"MEAN_ANOMALY":30.2747,"EPHEMERIS_TYPE":0,"CLASSIFICATION_TYPE":"U","NORAD_CAT_ID":25544,"ELEMENT_SET_NO":999,"REV_AT_EPOCH":56281,"BSTAR":0.0001745173,"MEAN_MOTION_DOT":9.13e-5,"MEAN_MOTION_DDOT":0},{"OBJECT_NAME":"CZ-4B R/B","OBJECT_ID":"1999-025C","EPOCH":"2026-04-20T01:42:20.047104","MEAN_MOTION":14.1827317,"ECCENTRICITY":0.00363454,"INCLINATION":98.6546,"RA_OF_ASC_NODE":153.3561,"ARG_OF_PERICENTER":224.5706,"MEAN_ANOMALY":165.0326,"EPHEMERIS_TYPE":0,"CLASSIFICATION_TYPE":"U","NORAD_CAT_ID":25732,"ELEMENT_SET_NO":999,"REV_AT_EPOCH":39403,"BSTAR":3.1289918e-5,"MEAN_MOTION_DOT":2.2e-7,"MEAN_MOTION_DDOT":0},{"OBJECT_NAME":"OKEAN-O","OBJECT_ID":"1999-039A","EPOCH":"2026-04-20T03:40:52.032000","MEAN_MOTION":14.80396237,"ECCENTRICITY":0.00013578,"INCLINATION":97.9365,"RA_OF_ASC_NODE":169.6058,"ARG_OF_PERICENTER":115.8346,"MEAN_ANOMALY":244.3007,"EPHEMERIS_TYPE":0,"CLASSIFICATION_TYPE":"U","NORAD_CAT_ID":25860,"ELEMENT_SET_NO":999,"REV_AT_EPOCH":44052,"BSTAR":5.8938531e-5,"MEAN_MOTION_DOT":3.98e-6,"MEAN_MOTION_DDOT":0},{"OBJECT_NAME":"SL-16 R/B","OBJECT_ID":"1999-039B","EPOCH":"2026-04-20T10:22:04.584000","MEAN_MOTION":14.81784519,"ECCENTRICITY":0.00160317,"INCLINATION":97.9887,"RA_OF_ASC_NODE":169.448,"ARG_OF_PERICENTER":119.7652,"MEAN_ANOMALY":240.5158,"EPHEMERIS_TYPE":0,"CLASSIFICATION_TYPE":"U","NORAD_CAT_ID":25861,"ELEMENT_SET_NO":999,"REV_AT_EPOCH":44304,"BSTAR":4.6691214e-5,"MEAN_MOTION_DOT":3.15e-6,"MEAN_MOTION_DDOT":0},{"OBJECT_NAME":"DELTA 2 R/B","OBJECT_ID":"1999-041E","EPOCH":"2026-04-20T08:21:51.941376","MEAN_MOTION":14.1192094,"ECCENTRICITY":0.05025203,"INCLINATION":51.7597,"RA_OF_ASC_NODE":134.856,"ARG_OF_PERICENTER":111.2733,"MEAN_ANOMALY":254.2612,"EPHEMERIS_TYPE":0,"CLASSIFICATION_TYPE":"U","NORAD_CAT_ID":25876,"ELEMENT_SET_NO":999,"REV_AT_EPOCH":36891,"BSTAR":6.2165863e-5,"MEAN_MOTION_DOT":1.35e-6,"MEAN_MOTION_DDOT":0}]
