ISS (ZARYA)
1 25544U 98067A   26110.52231243  .00009130  00000+0  17452-3 0  9996
2 25544  51.6326 225.5007 0006685 329.7855  30.2747 15.48851306562816
SL-16 R/B
1 22803U 93059B   26110.19031086 -.00000194  00000+0 -72387-4 0  9995
2 22803  70.9890 283.6090 0016087 153.8599 206.3341 14.17238586685418
ARIANE 40 R/B
1 22830U 93061H   26110.45692795  .00000121  00000+0  60161-4 0  9992
2 22830  98.4851 178.5051 0011348 155.1264 205.0470 14.32881990700088
COSMOS 2278
1 23087U 94023A   26110.39538814  .00000315  00000+0  18931-3 0  9992
2 23087  71.0521  87.8390 0010130 314.7984  45.2314 14.14383839650705
SL-16 R/B
1 23088U 94023B   26110.35232092 -.00000245  00000+0 -10191-3 0  9992
2 23088  71.0009 343.3937 0005409 248.6992 111.3554 14.15016628651983
SL-16 R/B
1 23343U 94074B   26110.31178399  .00000257  00000+0  40944-4 0  9998
2 23343  97.7048 139.4319 0008112  87.1735 283.6911 14.79451692693405
SL-16 R/B
1 23405U 94077B   26110.60036627  .00000247  00000+0  15086-3 0  9996
2 23405  70.9818 264.3135 0000750 143.6731 216.4443 14.15569943622168
ARIANE 40+ R/B
1 23561U 95021B   26110.43447047  .00000165  00000+0  66454-4 0  9997
2 23561  98.4437 181.3373 0007071  27.4902 342.9985 14.39800387625252
SL-16 R/B
1 23705U 95058B   26110.39738501  .00000034  00000+0  41814-4 0  9998
2 23705  71.0200  92.6891 0010759  48.8071 311.3978 14.15505054573753
SL-16 R/B
1 24298U 96051B   26110.38377045  .00000037  00000+0  46594-4 0  9994
2 24298  70.7589  86.9870 0012534  76.4761 283.7754 14.12426274527538
ORBVIEW 2 (SEASTAR)
1 24883U 97037A   26110.37808933  .00000149  00000+0  68129-4 0  9995
2 24883  98.8635 275.8099 0001258 316.5835  43.5250 14.35522177514458
SL-16 R/B
1 25400U 98043G   26110.40848837  .00000024  00000+0  29116-4 0  9995
2 25400  98.8321  64.0860 0008778 251.9166 108.1057 14.26058794444930
SL-16 R/B
1 25407U 98045B   26110.38781606 -.00000198  00000+0 -75960-4 0  9993
2 25407  71.0094  93.8825 0009176 309.8393  50.1922 14.16198667433002
CZ-4B R/B
1 25732U 99025C   26110.07106536  .00000022  00000+0  31290-4 0  9994
2 25732  98.6546 153.3561 0036345 224.5706 165.0326 14.18273170394036
OKEAN-O
1 25860U 99039A   26110.15338000  .00000398  00000+0  58939-4 0  9998
2 25860  97.9365 169.6058 0001357 115.8346 244.3007 14.80396237440529
SL-16 R/B
1 25861U 99039B   26110.43199750  .00000315  00000+0  46691-4 0  9998
2 25861  97.9887 169.4480 0016031 119.7652 240.5158 14.81784519443044
DELTA 2 R/B
1 25876U 99041E   26110.34851784  .00000135  00000+0  62166-4 0  9994
2 25876  51.7597 134.8560 0502520 111.2733 254.2612 14.11920940368913
